NORAD_CAT_ID,OBJECT_NAME,OBJECT_TYPE,EPOCH,MEAN_MOTION,ECCENTRICITY,INCLINATION,RA_OF_ASC_NODE,ARG_OF_PERICENTER,MEAN_ANOMALY,BSTAR,MEAN_MOTION_DOT,MEAN_MOTION_DDOT,TLE_LINE0,TLE_LINE1,TLE_LINE2,SEMIMAJOR_AXIS,PERIOD,APOGEE,PERIGEE,DECAYED
56813.0,STARLINK-6056,PAYLOAD,2024-04-05 00:47:57,14.98333729,0.0003175,69.9995,318.4478,270.2733,89.8063,4.5431e-05,4.49e-06,0.0,0 STARLINK-6056,1 56813U 23078AY  24096.03331002  .00000449  00000-0  45431-4 0  9994,2 56813  69.9995 318.4478 0003175 270.2733  89.8063 14.98333729 47281,6950.181,96.107,574.253,569.84,0.0
56813.0,STARLINK-6056,PAYLOAD,2024-04-05 21:37:42,14.98332711,0.0003106,69.9995,316.2595,270.2941,89.7862,2.3839e-05,1.91e-06,0.0,0 STARLINK-6056,1 56813U 23078AY  24096.90118980  .00000191  00000-0  23839-4 0  9990,2 56813  69.9995 316.2595 0003106 270.2941  89.7862 14.98332711 47671,6950.185,96.107,574.208,569.891,0.0
56813.0,STARLINK-6056,PAYLOAD,2024-04-06 07:14:31,14.98329378,0.0003083,69.9994,315.2495,270.5725,89.5081,-8.69e-06,-1.97e-06,0.0,0 STARLINK-6056,1 56813U 23078AY  24097.30175222 -.00000197  00000-0 -86900-5 0  9994,2 56813  69.9994 315.2495 0003083 270.5725  89.5081 14.98329378 47479,6950.195,96.107,574.203,569.917,0.0
56813.0,STARLINK-6056,PAYLOAD,2024-04-06 21:39:44,14.9832936,0.0003006,69.9994,313.735,269.4814,90.6,-3.098e-05,-4.63e-06,0.0,0 STARLINK-6056,1 56813U 23078AY  24097.90259297 -.00000463  00000-0 -30980-4 0  9997,2 56813  69.9994 313.7350 0003006 269.4814  90.6000 14.98329360 47568,6950.195,96.107,574.149,569.971,0.0
56813.0,STARLINK-6056,PAYLOAD,2024-04-07 07:16:32,14.98330056,0.0002995,69.9994,312.725,269.1448,90.9368,-2.1254e-05,-3.47e-06,0.0,0 STARLINK-6056,1 56813U 23078AY  24098.30315217 -.00000347  00000-0 -21254-4 0  9992,2 56813  69.9994 312.7250 0002995 269.1448  90.9368 14.98330056 47623,6950.193,96.107,574.139,569.976,0.0
56813.0,STARLINK-6056,PAYLOAD,2024-04-07 21:41:44,14.9833161,0.0002998,69.9993,311.2101,267.3255,92.7561,1.6253e-06,-7.4e-07,0.0,0 STARLINK-6056,1 56813U 23078AY  24098.90398998 -.00000074  00000-0  16253-5 0  9995,2 56813  69.9993 311.2101 0002998 267.3255  92.7561 14.98331610 47712,6950.188,96.107,574.137,569.969,0.0
56813.0,STARLINK-6056,PAYLOAD,2024-04-08 07:18:32,14.98349229,0.0003031,69.9998,310.1993,273.799,86.2823,-0.0003271,-3.996e-05,0.0,0 STARLINK-6056,1 56813U 23078AY  24099.30454588 -.00003996  00000-0 -32710-3 0  9999,2 56813  69.9998 310.1993 0003031 273.7990  86.2823 14.98349229 48030,6950.133,96.106,574.105,569.892,0.0
56813.0,STARLINK-6056,PAYLOAD,2024-04-08 23:19:53,14.98329385,0.0003027,69.9994,308.5159,270.3393,89.7419,7.2378e-06,-7e-08,0.0,0 STARLINK-6056,1 56813U 23078AY  24099.97215127 -.00000007  00000-0  72378-5 0  9991,2 56813  69.9994 308.5159 0003027 270.3393  89.7419 14.98329385 47877,6950.195,96.107,574.164,569.956,0.0
56813.0,STARLINK-6056,PAYLOAD,2024-04-09 07:20:34,14.98327873,0.0002971,69.9994,307.6745,269.9838,90.0981,-5.0743e-06,-1.54e-06,0.0,0 STARLINK-6056,1 56813U 23078AY  24100.30595281 -.00000154  00000-0 -50743-5 0  9999,2 56813  69.9994 307.6745 0002971 269.9838  90.0981 14.98327873 47928,6950.199,96.107,574.129,570.0,0.0
56813.0,STARLINK-6056,PAYLOAD,2024-04-09 21:45:46,14.98329046,0.0003044,69.9994,306.1595,269.8175,90.2635,-6.6807e-06,-1.73e-06,0.0,0 STARLINK-6056,1 56813U 23078AY  24100.90679175 -.00000173  00000-0 -66807-5 0  9999,2 56813  69.9994 306.1595 0003044 269.8175  90.2635 14.98329046 48013,6950.196,96.107,574.176,569.945,0.0
56813.0,STARLINK-6056,PAYLOAD,2024-04-09 23:21:54,14.98329177,0.0003042,69.9995,305.9912,269.8328,90.2482,-4.6771e-06,-1.49e-06,0.0,0 STARLINK-6056,1 56813U 23078AY  24100.97355162 -.00000149  00000-0 -46771-5 0  9994,2 56813  69.9995 305.9912 0003042 269.8328  90.2482 14.98329177 48286,6950.195,96.107,574.175,569.946,0.0
56813.0,STARLINK-6056,PAYLOAD,2024-04-10 13:47:07,14.98326904,0.0003039,69.9994,304.4761,269.6632,90.4179,-1.3556e-05,-2.55e-06,0.0,0 STARLINK-6056,1 56813U 23078AY  24101.57439362 -.00000255  00000-0 -13556-4 0  9998,2 56813  69.9994 304.4761 0003039 269.6632  90.4179 14.98326904 48115,6950.202,96.107,574.18,569.955,0.0
56813.0,STARLINK-6056,PAYLOAD,2024-04-10 21:47:48,14.98326963,0.0003051,69.9991,303.6345,269.8077,90.2732,-2.5297e-05,-3.95e-06,0.0,0 STARLINK-6056,1 56813U 23078AY  24101.90819456 -.00000395  00000-0 -25297-4 0  9991,2 56813  69.9991 303.6345 0003051 269.8077  90.2732 14.98326963 48163,6950.202,96.107,574.188,569.947,0.0
56813.0,STARLINK-6056,PAYLOAD,2024-04-10 23:23:56,14.98327308,0.0003047,69.9991,303.4662,269.8231,90.2579,-2.0125e-05,-3.33e-06,0.0,0 STARLINK-6056,1 56813U 23078AY  24101.97495431 -.00000333  00000-0 -20125-4 0  9998,2 56813  69.9991 303.4662 0003047 269.8231  90.2579 14.98327308 48433,6950.201,96.107,574.184,569.948,0.0
56813.0,STARLINK-6056,PAYLOAD,2024-04-11 13:49:08,14.98332594,0.0003092,69.9988,301.9513,269.7711,90.3094,4.1105e-05,3.97e-06,0.0,0 STARLINK-6056,1 56813U 23078AY  24102.57578917  .00000397  00000-0  41105-4 0  9995,2 56813  69.9988 301.9513 0003092 269.7711  90.3094 14.98332594 48266,6950.185,96.107,574.199,569.901,0.0
56813.0,STARLINK-6056,PAYLOAD,2024-04-11 20:13:40,14.98334163,0.0003079,69.9991,301.2779,269.8802,90.2004,6.83e-05,7.22e-06,0.0,0 STARLINK-6056,1 56813U 23078AY  24102.84282680  .00000722  00000-0  68300-4 0  9992,2 56813  69.9991 301.2779 0003079 269.8802  90.2004 14.98334163 48561,6950.18,96.107,574.185,569.905,0.0
56813.0,STARLINK-6056,PAYLOAD,2024-04-11 21:49:48,14.98334504,0.0003069,69.9991,301.1095,269.8909,90.1898,7.2362e-05,7.71e-06,0.0,0 STARLINK-6056,1 56813U 23078AY  24102.90958630  .00000771  00000-0  72362-4 0  9991,2 56813  69.9991 301.1095 0003069 269.8909  90.1898 14.98334504 48310,6950.179,96.107,574.177,569.911,0.0
56813.0,STARLINK-6056,PAYLOAD,2024-04-12 13:51:09,14.98328706,0.0003052,69.9989,299.4261,270.2888,89.7922,3.8401e-05,3.65e-06,0.0,0 STARLINK-6056,1 56813U 23078AY  24103.57718996  .00000365  00000-0  38401-4 0  9999,2 56813  69.9989 299.4261 0003052 270.2888  89.7922 14.98328706 48415,6950.197,96.107,574.183,569.941,0.0
56813.0,STARLINK-6056,PAYLOAD,2024-04-12 15:27:17,14.98328811,0.0003053,69.9989,299.2578,270.271,89.8099,3.8456e-05,3.66e-06,0.0,0 STARLINK-6056,1 56813U 23078AY  24103.64394988  .00000366  00000-0  38456-4 0  9999,2 56813  69.9989 299.2578 0003053 270.2710  89.8099 14.98328811 48681,6950.197,96.107,574.183,569.94,0.0
56813.0,STARLINK-6056,PAYLOAD,2024-04-12 21:51:49,14.98330081,0.0002984,69.9992,298.5846,269.8009,90.2808,4.6469e-05,4.61e-06,0.0,0 STARLINK-6056,1 56813U 23078AY  24103.91098878  .00000461  00000-0  46469-4 0  9997,2 56813  69.9992 298.5846 0002984 269.8009  90.2808 14.98330081 48464,6950.193,96.107,574.132,569.984,0.0
56813.0,STARLINK-6056,PAYLOAD,2024-04-13 13:53:10,14.98331285,0.0002817,69.9997,296.9024,265.489,94.5947,-5.3947e-05,-7.37e-06,0.0,0 STARLINK-6056,1 56813U 23078AY  24104.57859043 -.00000737  00000-0 -53947-4 0  9996,2 56813  69.9997 296.9024 0002817 265.4890  94.5947 14.98331285 48563,6950.189,96.107,574.012,570.096,0.0
56813.0,STARLINK-6056,PAYLOAD,2024-04-13 20:17:42,14.98330145,0.000284,69.9996,296.229,265.2444,94.839,-6.2417e-05,-8.38e-06,0.0,0 STARLINK-6056,1 56813U 23078AY  24104.84563113 -.00000838  00000-0 -62417-4 0  9990,2 56813  69.9996 296.2290 0002840 265.2444  94.8390 14.98330145 48603,6950.192,96.107,574.031,570.084,0.0
56813.0,STARLINK-6056,PAYLOAD,2024-04-14 20:19:43,14.98332652,0.000292,69.9994,293.7032,266.6579,93.4246,2.5675e-05,2.13e-06,0.0,0 STARLINK-6056,1 56813U 23078AY  24105.84702604  .00000213  00000-0  25675-4 0  9991,2 56813  69.9994 293.7032 0002920 266.6579  93.4246 14.98332652 49016,6950.185,96.107,574.079,570.02,0.0
56813.0,STARLINK-6056,PAYLOAD,2024-04-14 21:55:51,14.98333265,0.0002908,69.9995,293.535,266.1872,93.8955,3.3213e-05,3.03e-06,0.0,0 STARLINK-6056,1 56813U 23078AY  24105.91378532  .00000303  00000-0  33213-4 0  9995,2 56813  69.9995 293.5350 0002908 266.1872  93.8955 14.98333265 48768,6950.183,96.107,574.069,570.027,0.0
56813.0,STARLINK-6056,PAYLOAD,2024-04-15 13:57:11,14.98329492,0.0002915,69.9995,291.8519,265.4573,94.6253,3.4104e-05,3.14e-06,0.0,0 STARLINK-6056,1 56813U 23078AY  24106.58138687  .00000314  00000-0  34104-4 0  9996,2 56813  69.9995 291.8519 0002915 265.4573  94.6253 14.98329492 48862,6950.194,96.107,574.085,570.033,0.0
56813.0,STARLINK-6056,PAYLOAD,2024-04-15 20:21:44,14.98329355,0.0002925,69.9995,291.1786,265.5034,94.5791,2.9354e-05,2.57e-06,0.0,0 STARLINK-6056,1 56813U 23078AY  24106.84842710  .00000257  00000-0  29354-4 0  9991,2 56813  69.9995 291.1786 0002925 265.5034  94.5791 14.98329355 49163,6950.195,96.107,574.093,570.027,0.0
56813.0,STARLINK-6056,PAYLOAD,2024-04-16 12:23:05,14.98286723,0.0002782,69.9993,289.4934,274.0507,86.0334,0.00066223,7.809e-05,0.0,0 STARLINK-6056,1 56813U 23078AY  24107.51603214  .00007809  00000-0  66223-3 0  9995,2 56813  69.9993 289.4934 0002782 274.0507  86.0334 14.98286723 49268,6950.327,96.11,574.125,570.258,0.0
56813.0,STARLINK-6056,PAYLOAD,2024-04-16 13:59:12,14.98329363,0.0003013,69.9993,289.3251,271.713,88.3684,-3.7681e-05,-5.43e-06,0.0,0 STARLINK-6056,1 56813U 23078AY  24107.58278925 -.00000543  00000-0 -37681-4 0  9996,2 56813  69.9993 289.3251 0003013 271.7130  88.3684 14.98329363 49017,6950.195,96.107,574.154,569.966,0.0
56813.0,STARLINK-6056,PAYLOAD,2024-04-16 20:23:44,14.9833318,0.000302,69.999,288.6512,270.0079,90.0734,1.5903e-05,9.7e-07,0.0,0 STARLINK-6056,1 56813U 23078AY  24107.84982504  .00000097  00000-0  15903-4 0  9995,2 56813  69.9990 288.6512 0003020 270.0079  90.0734 14.98333180 49319,6950.183,96.107,574.147,569.949,0.0
56813.0,STARLINK-6056,PAYLOAD,2024-04-16 21:59:52,14.98336976,0.0003017,69.9991,288.483,270.2923,89.7891,5.1904e-05,5.26e-06,0.0,0 STARLINK-6056,1 56813U 23078AY  24107.91658130  .00000526  00000-0  51904-4 0  9996,2 56813  69.9991 288.4830 0003017 270.2923  89.7891 14.98336976 49064,6950.171,96.107,574.133,569.939,0.0
